#   SL-12 R/B           # Shows Lyddane choice at 1860 and 4700 min
# 1844000 1845100 5
1 20413U 83020D   05363.79166667  .00000000  00000-0  00000+0 0  7041
2 20413  12.3514 187.4253 7864447 196.3027 356.5478  0.24690082  7978
